{"type": "FeatureCollection", "features": [ {"type": "Feature", "properties": {"norad_id": 34001, "name": "COSMOS 2251 DEB", "group": "cosmos-2251-debris", "lat": 56.65294864224694, "lon": 66.47471967376194, "alt_km": 771.0429911878673, "timestamp": "2025-12-17T19:34:08.431049+00:00", "meta": {"OBJECT_NAME": "COSMOS 2251 DEB", "OBJECT_ID": "1993-036GL", "EPOCH": "2025-12-17T06:22:11.695296", "MEAN_MOTION": 14.37104206, "ECCENTRICITY": 0.00201962, "INCLINATION": 74.0388, "RA_OF_ASC_NODE": 273.2655, "ARG_OF_PERICENTER": 353.3773, "MEAN_ANOMALY": 161.9303, "EPHEMERIS_TYPE": 0, "CLASSIFICATION_TYPE": "U", "NORAD_CAT_ID": 34001, "ELEMENT_SET_NO": 999, "REV_AT_EPOCH": 88211, "BSTAR": 0.00017203986, "MEAN_MOTION_DOT": 4.86e-06, "MEAN_MOTION_DDOT": 0}, "tle": {"line1": "1 34001U 93036GL  25351.26541314  .00000486  00000+0  17204-3 0  9995", "line2": "2 34001  74.0388 273.2655 0020196 353.3773 161.9303 14.37104206882110"}}, "geometry": {"type": "Point", "coordinates": [66.47471967376194, 56.65294864224694]}}, {"type": "Feature", "properties": {"norad_id": 34003, "name": "COSMOS 2251 DEB", "group": "cosmos-2251-debris", "lat": 53.283809234872486, "lon": 74.09734220538229, "alt_km": 959.3242422477297, "timestamp": "2025-12-17T19:34:08.431060+00:00", "meta": {"OBJECT_NAME": "COSMOS 2251 DEB", "OBJECT_ID": "1993-036GN", "EPOCH": "2025-12-16T20:26:52.468224", "MEAN_MOTION": 13.84175487, "ECCENTRICITY": 0.02747173, "INCLINATION": 74.0776, "RA_OF_ASC_NODE": 278.222, "ARG_OF_PERICENTER": 29.3035, "MEAN_ANOMALY": 332.3183, "EPHEMERIS_TYPE": 0, "CLASSIFICATION_TYPE": "U", "NORAD_CAT_ID": 34003, "ELEMENT_SET_NO": 999, "REV_AT_EPOCH": 84482, "BSTAR": 0.0016336828, "MEAN_MOTION_DOT": 2.418e-05, "MEAN_MOTION_DDOT": 0}, "tle": {"line1": "1 34003U 93036GN  25350.85199616  .00002418  00000+0  16337-2 0  9997", "line2": "2 34003  74.0776 278.2220 0274717  29.3035 332.3183 13.84175487844823"}}, "geometry": {"type": "Point", "coordinates": [74.09734220538229, 53.283809234872486]}}, {"type": "Feature", "properties": {"norad_id": 34004, "name": "COSMOS 2251 DEB", "group": "cosmos-2251-debris", "lat": -40.899555279788295, "lon": 137.94946362533523, "alt_km": 735.7891622632251, "timestamp": "2025-12-17T19:34:08.431070+00:00", "meta": {"OBJECT_NAME": "COSMOS 2251 DEB", "OBJECT_ID": "1993-036GP", "EPOCH": "2025-12-17T06:56:32.879616", "MEAN_MOTION": 14.49052548, "ECCENTRICITY": 0.00334056, "INCLINATION": 74.035, "RA_OF_ASC_NODE": 304.578, "ARG_OF_PERICENTER": 316.2119, "MEAN_ANOMALY": 43.6392, "EPHEMERIS_TYPE": 0, "CLASSIFICATION_TYPE": "U", "NORAD_CAT_ID": 34004, "ELEMENT_SET_NO": 999, "REV_AT_EPOCH": 88096, "BSTAR": 0.001009477, "MEAN_MOTION_DOT": 3.834e-05, "MEAN_MOTION_DDOT": 0}, "tle": {"line1": "1 34004U 93036GP  25351.28926944  .00003834  00000+0  10095-2 0  9996", "line2": "2 34004  74.0350 304.5780 0033405 316.2119  43.6392 14.49052548880967"}}, "geometry": {"type": "Point", "coordinates": [137.94946362533523, -40.899555279788295]}}, {"type": "Feature", "properties": {"norad_id": 34005, "name": "COSMOS 2251 DEB", "group": "cosmos-2251-debris", "lat": -21.607989309512558, "lon": -162.23660751506418, "alt_km": 748.0364283353001, "timestamp": "2025-12-17T19:34:08.431080+00:00", "meta": {"OBJECT_NAME": "COSMOS 2251 DEB", "OBJECT_ID": "1993-036GQ", "EPOCH": "2025-12-17T02:03:51.004800", "MEAN_MOTION": 14.40307531, "ECCENTRICITY": 0.00209899, "INCLINATION": 74.0439, "RA_OF_ASC_NODE": 205.6174, "ARG_OF_PERICENTER": 323.0811, "MEAN_ANOMALY": 194.1162, "EPHEMERIS_TYPE": 0, "CLASSIFICATION_TYPE": "U", "NORAD_CAT_ID": 34005, "ELEMENT_SET_NO": 999, "REV_AT_EPOCH": 88441, "BSTAR": 9.8416414e-05, "MEAN_MOTION_DOT": 2.86e-06, "MEAN_MOTION_DDOT": 0}, "tle": {"line1": "1 34005U 93036GQ  25351.08600700  .00000286  00000+0  98416-4 0  9997", "line2": "2 34005  74.0439 205.6174 0020989 323.0811 194.1162 14.40307531884419"}}, "geometry": {"type": "Point", "coordinates": [-162.23660751506418, -21.607989309512558]}}, {"type": "Feature", "properties": {"norad_id": 34006, "name": "COSMOS 2251 DEB", "group": "cosmos-2251-debris", "lat": 18.849439290188144, "lon": -52.540730139467605, "alt_km": 581.6140496039216, "timestamp": "2025-12-17T19:34:08.431091+00:00", "meta": {"OBJECT_NAME": "COSMOS 2251 DEB", "OBJECT_ID": "1993-036GR", "EPOCH": "2025-12-17T03:34:04.814112", "MEAN_MOTION": 14.95055718, "ECCENTRICITY": 0.00115093, "INCLINATION": 74.0527, "RA_OF_ASC_NODE": 134.404, "ARG_OF_PERICENTER": 74.6304, "MEAN_ANOMALY": 98.6159, "EPHEMERIS_TYPE": 0, "CLASSIFICATION_TYPE": "U", "NORAD_CAT_ID": 34006, "ELEMENT_SET_NO": 999, "REV_AT_EPOCH": 88734, "BSTAR": 0.002542804, "MEAN_MOTION_DOT": 0.00027961, "MEAN_MOTION_DDOT": 0}, "tle": {"line1": "1 34006U 93036GR  25351.14866683  .00027961  00000+0  25428-2 0  9999", "line2": "2 34006  74.0527 134.4040 0011509  74.6304  98.6159 14.95055718887349"}}, "geometry": {"type": "Point", "coordinates": [-52.540730139467605, 18.849439290188144]}}, {"type": "Feature", "properties": {"norad_id": 34007, "name": "COSMOS 2251 DEB", "group": "cosmos-2251-debris", "lat": -73.85264714097993, "lon": -121.06545199329008, "alt_km": 713.3834849692967, "timestamp": "2025-12-17T19:34:08.431101+00:00", "meta": {"OBJECT_NAME": "COSMOS 2251 DEB", "OBJECT_ID": "1993-036GS", "EPOCH": "2025-12-17T05:14:26.844864", "MEAN_MOTION": 14.64817517, "ECCENTRICITY": 0.00442421, "INCLINATION": 74.019, "RA_OF_ASC_NODE": 338.2748, "ARG_OF_PERICENTER": 111.7587, "MEAN_ANOMALY": 248.8299, "EPHEMERIS_TYPE": 0, "CLASSIFICATION_TYPE": "U", "NORAD_CAT_ID": 34007, "ELEMENT_SET_NO": 999, "REV_AT_EPOCH": 89145, "BSTAR": 0.00050792683, "MEAN_MOTION_DOT": 2.719e-05, "MEAN_MOTION_DDOT": 0}, "tle": {"line1": "1 34007U 93036GS  25351.21836626  .00002719  00000+0  50793-3 0  9990", "line2": "2 34007  74.0190 338.2748 0044242 111.7587 248.8299 14.64817517891451"}}, "geometry": {"type": "Point", "coordinates": [-121.06545199329008, -73.85264714097993]}}, {"type": "Feature", "properties": {"norad_id": 34008, "name": "COSMOS 2251 DEB", "group": "cosmos-2251-debris", "lat": 61.57497639135647, "lon": 109.31021057579895, "alt_km": 791.1419324029885, "timestamp": "2025-12-17T19:34:08.431111+00:00", "meta": {"OBJECT_NAME": "COSMOS 2251 DEB", "OBJECT_ID": "1993-036GT", "EPOCH": "2025-12-17T07:52:33.244320", "MEAN_MOTION": 14.33149559, "ECCENTRICITY": 0.00244781, "INCLINATION": 74.0344, "RA_OF_ASC_NODE": 322.1322, "ARG_OF_PERICENTER": 316.6023, "MEAN_ANOMALY": 164.3902, "EPHEMERIS_TYPE": 0, "CLASSIFICATION_TYPE": "U", "NORAD_CAT_ID": 34008, "ELEMENT_SET_NO": 999, "REV_AT_EPOCH": 88030, "BSTAR": 0.00010933472, "MEAN_MOTION_DOT": 2.75e-06, "MEAN_MOTION_DDOT": 0}, "tle": {"line1": "1 34008U 93036GT  25351.32816255  .00000275  00000+0  10933-3 0  9996", "line2": "2 34008  74.0344 322.1322 0024478 316.6023 164.3902 14.33149559880308"}}, "geometry": {"type": "Point", "coordinates": [109.31021057579895, 61.57497639135647]}}, {"type": "Feature", "properties": {"norad_id": 34009, "name": "COSMOS 2251 DEB", "group": "cosmos-2251-debris", "lat": 27.407166510910876, "lon": 139.12595505248945, "alt_km": 787.671378870129, "timestamp": "2025-12-17T19:34:08.431120+00:00", "meta": {"OBJECT_NAME": "COSMOS 2251 DEB", "OBJECT_ID": "1993-036GU", "EPOCH": "2025-12-17T07:41:03.700608", "MEAN_MOTION": 14.33225908, "ECCENTRICITY": 0.00266776, "INCLINATION": 74.0372, "RA_OF_ASC_NODE": 328.5654, "ARG_OF_PERICENTER": 36.7927, "MEAN_ANOMALY": 80.2452, "EPHEMERIS_TYPE": 0, "CLASSIFICATION_TYPE": "U", "NORAD_CAT_ID": 34009, "ELEMENT_SET_NO": 999, "REV_AT_EPOCH": 88011, "BSTAR": 0.00012906287, "MEAN_MOTION_DOT": 3.3e-06, "MEAN_MOTION_DDOT": 0}, "tle": {"line1": "1 34009U 93036GU  25351.32018172  .00000330  00000+0  12906-3 0  9993", "line2": "2 34009  74.0372 328.5654 0026677  36.7927  80.2452 14.33225908880112"}}, "geometry": {"type": "Point", "coordinates": [139.12595505248945, 27.407166510910876]}}, {"type": "Feature", "properties": {"norad_id": 34010, "name": "COSMOS 2251 DEB", "group": "cosmos-2251-debris", "lat": 27.033025228927308, "lon": 84.23990536426314, "alt_km": 505.81134662275144, "timestamp": "2025-12-17T19:34:08.431130+00:00", "meta": {"OBJECT_NAME": "COSMOS 2251 DEB", "OBJECT_ID": "1993-036GV", "EPOCH": "2025-12-17T04:40:58.104480", "MEAN_MOTION": 15.19451391, "ECCENTRICITY": 0.00045706, "INCLINATION": 73.999, "RA_OF_ASC_NODE": 273.9611, "ARG_OF_PERICENTER": 64.443, "MEAN_ANOMALY": 295.7239, "EPHEMERIS_TYPE": 0, "CLASSIFICATION_TYPE": "U", "NORAD_CAT_ID": 34010, "ELEMENT_SET_NO": 999, "REV_AT_EPOCH": 89353, "BSTAR": 0.0033774124, "MEAN_MOTION_DOT": 0.00072328, "MEAN_MOTION_DDOT": 0}, "tle": {"line1": "1 34010U 93036GV  25351.19511695  .00072328  00000+0  33774-2 0  9999", "line2": "2 34010  73.9990 273.9611 0004570  64.4430 295.7239 15.19451391893537"}}, "geometry": {"type": "Point", "coordinates": [84.23990536426314, 27.033025228927308]}}, {"type": "Feature", "properties": {"norad_id": 34011, "name": "COSMOS 2251 DEB", "group": "cosmos-2251-debris", "lat": -45.51748650982909, "lon": -56.24029203612187, "alt_km": 759.1470362080681, "timestamp": "2025-12-17T19:34:08.431140+00:00", "meta": {"OBJECT_NAME": "COSMOS 2251 DEB", "OBJECT_ID": "1993-036GW", "EPOCH": "2025-12-17T06:28:05.166336", "MEAN_MOTION": 14.41791711, "ECCENTRICITY": 0.00358567, "INCLINATION": 74.0142, "RA_OF_ASC_NODE": 321.7433, "ARG_OF_PERICENTER": 43.9225, "MEAN_ANOMALY": 316.4771, "EPHEMERIS_TYPE": 0, "CLASSIFICATION_TYPE": "U", "NORAD_CAT_ID": 34011, "ELEMENT_SET_NO": 999, "REV_AT_EPOCH": 87981, "BSTAR": 0.00060869709, "MEAN_MOTION_DOT": 1.978e-05, "MEAN_MOTION_DDOT": 0}, "tle": {"line1": "1 34011U 93036GW  25351.26950424  .00001978  00000+0  60870-3 0  9996", "line2": "2 34011  74.0142 321.7433 0035856  43.9225 316.4771 14.41791711879812"}}, "geometry": {"type": "Point", "coordinates": [-56.24029203612187, -45.51748650982909]}}]}